[{"OBJECT_NAME":"GLOBALSTAR M080","OBJECT_ID":"2011-080B","EPOCH":"2026-03-09T22:54:28.912320","MEAN_MOTION":12.62267152,"ECCENTRICITY":0.00010928,"INCLINATION":52.008,"RA_OF_ASC_NODE":321.0695,"ARG_OF_PERICENTER":66.5328,"MEAN_ANOMALY":47.2792,"EPHEMERIS_TYPE":0,"CLASSIFICATION_TYPE":"U","NORAD_CAT_ID":38041,"ELEMENT_SET_NO":999,"REV_AT_EPOCH":65635,"BSTAR":0.00012396235,"MEAN_MOTION_DOT":-8.2e-7,"MEAN_MOTION_DDOT":0},{"OBJECT_NAME":"COSMOS 2272","OBJECT_ID":"1994-011E","EPOCH":"2026-03-09T20:34:38.916768","MEAN_MOTION":12.64398082,"ECCENTRICITY":0.00123628,"INCLINATION":82.5778,"RA_OF_ASC_NODE":355.0102,"ARG_OF_PERICENTER":25.527,"MEAN_ANOMALY":334.643,"EPHEMERIS_TYPE":0,"CLASSIFICATION_TYPE":"U","NORAD_CAT_ID":23003,"ELEMENT_SET_NO":999,"REV_AT_EPOCH":47987,"BSTAR":0.00013719628,"MEAN_MOTION_DOT":3.6e-7,"MEAN_MOTION_DDOT":0}]
